{
  "norad_id": 58371,
  "name": "STARLINK-30859",
  "history": [
    {
      "epoch": "2026-03-28T17:17:12.936768Z",
      "apogee_km": 484.2176071559825,
      "perigee_km": 481.8671043322911,
      "latitude_deg": -8.737518936560315e-06,
      "longitude_deg": 158.01380276524858,
      "height_km": 482.5584774959325,
      "semi_major_axis_km": 6861.179355744137,
      "eccentricity": 0.00017129,
      "inclination_deg": 42.9985,
      "raan_deg": 243.4544,
      "arg_perigee_deg": 282.8147,
      "mean_anomaly_deg": 77.2513,
      "mean_motion_rev_day": 15.27582251
    },
    {
      "epoch": "2026-03-29T02:42:09.416736Z",
      "apogee_km": 484.023862692723,
      "perigee_km": 482.0794018343404,
      "latitude_deg": 2.5096468113147778e-05,
      "longitude_deg": 14.177116994700645,
      "height_km": 482.60169734900046,
      "semi_major_axis_km": 6861.188632263532,
      "eccentricity": 0.0001417,
      "inclination_deg": 42.9993,
      "raan_deg": 241.2397,
      "arg_perigee_deg": 283.4762,
      "mean_anomaly_deg": 76.5932,
      "mean_motion_rev_day": 15.27579153
    },
    {
      "epoch": "2026-03-30T02:14:30.184224Z",
      "apogee_km": 483.8908405714983,
      "perigee_km": 482.2977998835686,
      "latitude_deg": 2.4207016298881037e-06,
      "longitude_deg": 14.58434559882233,
      "height_km": 482.9316992655467,
      "semi_major_axis_km": 6861.231320227534,
      "eccentricity": 0.00011609,
      "inclination_deg": 43.0002,
      "raan_deg": 235.7002,
      "arg_perigee_deg": 265.6174,
      "mean_anomaly_deg": 94.4545,
      "mean_motion_rev_day": 15.27564897
    },
    {
      "epoch": "2026-03-30T10:05:17.049408Z",
      "apogee_km": 484.13253041426196,
      "perigee_km": 482.01721879332126,
      "latitude_deg": -1.3737914570257526e-05,
      "longitude_deg": -105.27978105924431,
      "height_km": 482.7931563303056,
      "semi_major_axis_km": 6861.211874603791,
      "eccentricity": 0.00015415,
      "inclination_deg": 42.9995,
      "raan_deg": 233.8536,
      "arg_perigee_deg": 273.1701,
      "mean_anomaly_deg": 86.8974,
      "mean_motion_rev_day": 15.27571391
    },
    {
      "epoch": "2026-03-30T19:30:13.208832Z",
      "apogee_km": 483.9201548043229,
      "perigee_km": 482.12335454964796,
      "latitude_deg": 2.4943432233470005e-05,
      "longitude_deg": 110.88337810162452,
      "height_km": 482.8300031271845,
      "semi_major_axis_km": 6861.158754676985,
      "eccentricity": 0.00013094,
      "inclination_deg": 42.999,
      "raan_deg": 231.6374,
      "arg_perigee_deg": 267.9752,
      "mean_anomaly_deg": 92.095,
      "mean_motion_rev_day": 15.27589131
    },
    {
      "epoch": "2026-03-31T15:54:15.847488Z",
      "apogee_km": 483.54758182665955,
      "perigee_km": 482.534871920373,
      "latitude_deg": 4.005247506026356e-05,
      "longitude_deg": 159.23547263024025,
      "height_km": 482.6967443067181,
      "semi_major_axis_km": 6861.178226873516,
      "eccentricity": 7.38e-05,
      "inclination_deg": 42.999,
      "raan_deg": 226.8383,
      "arg_perigee_deg": 283.7656,
      "mean_anomaly_deg": 76.3114,
      "mean_motion_rev_day": 15.27582628
    },
    {
      "epoch": "2026-04-01T09:09:59.206464Z",
      "apogee_km": 483.9654839684763,
      "perigee_km": 482.13217511482253,
      "latitude_deg": 4.803926947319374e-06,
      "longitude_deg": -104.46505338050672,
      "height_km": 482.63188810288676,
      "semi_major_axis_km": 6861.185829541649,
      "eccentricity": 0.0001336,
      "inclination_deg": 43.0007,
      "raan_deg": 222.7774,
      "arg_perigee_deg": 282.1973,
      "mean_anomaly_deg": 77.8729,
      "mean_motion_rev_day": 15.27580089
    },
    {
      "epoch": "2026-04-02T16:33:06.343200Z",
      "apogee_km": 483.82649592352027,
      "perigee_km": 482.1685713748084,
      "latitude_deg": 4.214611557718331e-05,
      "longitude_deg": 136.07810217210374,
      "height_km": 482.8240324289846,
      "semi_major_axis_km": 6861.134533649164,
      "eccentricity": 0.00012082,
      "inclination_deg": 42.9981,
      "raan_deg": 215.3892,
      "arg_perigee_deg": 266.5292,
      "mean_anomaly_deg": 93.5422,
      "mean_motion_rev_day": 15.2759722
    },
    {
      "epoch": "2026-04-03T16:05:28.282272Z",
      "apogee_km": 483.6948520681217,
      "perigee_km": 482.52843979831323,
      "latitude_deg": -2.142559913230504e-05,
      "longitude_deg": 136.48269180225816,
      "height_km": 482.40279767161235,
      "semi_major_axis_km": 6861.248645933218,
      "eccentricity": 8.5e-05,
      "inclination_deg": 42.9993,
      "raan_deg": 209.852,
      "arg_perigee_deg": 326.2147,
      "mean_anomaly_deg": 33.865,
      "mean_motion_rev_day": 15.27559111
    },
    {
      "epoch": "2026-04-04T14:03:39.282048Z",
      "apogee_km": 483.91809792574077,
      "perigee_km": 481.9983634801911,
      "latitude_deg": 8.878330526090337e-06,
      "longitude_deg": 160.86372671062315,
      "height_km": 482.44156837316007,
      "semi_major_axis_km": 6861.095230702966,
      "eccentricity": 0.0001399,
      "inclination_deg": 42.9984,
      "raan_deg": 204.6811,
      "arg_perigee_deg": 287.7837,
      "mean_anomaly_deg": 72.2862,
      "mean_motion_rev_day": 15.27610346
    },
    {
      "epoch": "2026-04-05T13:35:59.952768Z",
      "apogee_km": 484.27430973929313,
      "perigee_km": 481.7782185437982,
      "latitude_deg": -1.0931243338591587e-05,
      "longitude_deg": 161.2735607079967,
      "height_km": 482.79464397007575,
      "semi_major_axis_km": 6861.163264141545,
      "eccentricity": 0.0001819,
      "inclination_deg": 43.0,
      "raan_deg": 199.1438,
      "arg_perigee_deg": 270.3975,
      "mean_anomaly_deg": 89.6668,
      "mean_motion_rev_day": 15.27587625
    },
    {
      "epoch": "2026-04-07T12:40:41.747808Z",
      "apogee_km": 484.3306593322686,
      "perigee_km": 481.74235023932215,
      "latitude_deg": 7.44273253392144e-06,
      "longitude_deg": 162.08749338658444,
      "height_km": 482.89550859840534,
      "semi_major_axis_km": 6861.173504785795,
      "eccentricity": 0.00018862,
      "inclination_deg": 42.9992,
      "raan_deg": 188.0653,
      "arg_perigee_deg": 266.3663,
      "mean_anomaly_deg": 93.6973,
      "mean_motion_rev_day": 15.27584205
    },
    {
      "epoch": "2026-04-08T12:13:02.841888Z",
      "apogee_km": 484.41868950751996,
      "perigee_km": 481.71537511878887,
      "latitude_deg": 1.1916459474547132e-05,
      "longitude_deg": 162.4934829056428,
      "height_km": 482.85455989627474,
      "semi_major_axis_km": 6861.204032313154,
      "eccentricity": 0.000197,
      "inclination_deg": 42.9981,
      "raan_deg": 182.5259,
      "arg_perigee_deg": 269.5511,
      "mean_anomaly_deg": 90.5115,
      "mean_motion_rev_day": 15.2757401
    },
    {
      "epoch": "2026-04-09T07:02:55.336128Z",
      "apogee_km": 484.3295845640914,
      "perigee_km": 481.7596603755792,
      "latitude_deg": -7.739334725398168e-06,
      "longitude_deg": -125.18003831891737,
      "height_km": 482.77235864431265,
      "semi_major_axis_km": 6861.181622469835,
      "eccentricity": 0.00018728,
      "inclination_deg": 42.9985,
      "raan_deg": 178.0945,
      "arg_perigee_deg": 272.1935,
      "mean_anomaly_deg": 87.8702,
      "mean_motion_rev_day": 15.27581494
    }
  ]
}